CCSDS_OMM_VERS = 2.0
CREATION_DATE  = 
ORIGINATOR     = 

OBJECT_NAME    = HULIANWANG DIGUI-119
OBJECT_ID      = 2025-295A
CENTER_NAME    = EARTH
REF_FRAME      = TEME
TIME_SYSTEM    = UTC
MEAN_ELEMENT_THEORY = SGP/SGP4

EPOCH          = 2026-01-03T05:36:37.574208
MEAN_MOTION    = 14.24626934
ECCENTRICITY   = .00139028
INCLINATION    = 50.0041
RA_OF_ASC_NODE = 281.6023
ARG_OF_PERICENTER = 322.5192
MEAN_ANOMALY   = 37.4751

EPHEMERIS_TYPE = 0
CLASSIFICATION_TYPE = U
NORAD_CAT_ID   = 67059
ELEMENT_SET_NO = 999
REV_AT_EPOCH   = 318
BSTAR          = .3434522E-3
MEAN_MOTION_DOT = .644E-5
MEAN_MOTION_DDOT = 0

CCSDS_OMM_VERS = 2.0
CREATION_DATE  = 
ORIGINATOR     = 

OBJECT_NAME    = HULIANWANG DIGUI-120
OBJECT_ID      = 2025-295B
CENTER_NAME    = EARTH
REF_FRAME      = TEME
TIME_SYSTEM    = UTC
MEAN_ELEMENT_THEORY = SGP/SGP4

EPOCH          = 2026-01-03T07:10:35.712480
MEAN_MOTION    = 14.24628827
ECCENTRICITY   = .00132738
INCLINATION    = 50.0049
RA_OF_ASC_NODE = 281.2814
ARG_OF_PERICENTER = 323.3718
MEAN_ANOMALY   = 36.6287

EPHEMERIS_TYPE = 0
CLASSIFICATION_TYPE = U
NORAD_CAT_ID   = 67060
ELEMENT_SET_NO = 999
REV_AT_EPOCH   = 319
BSTAR          = .34334522E-3
MEAN_MOTION_DOT = .644E-5
MEAN_MOTION_DDOT = 0

CCSDS_OMM_VERS = 2.0
CREATION_DATE  = 
ORIGINATOR     = 

OBJECT_NAME    = HULIANWANG DIGUI-121
OBJECT_ID      = 2025-295C
CENTER_NAME    = EARTH
REF_FRAME      = TEME
TIME_SYSTEM    = UTC
MEAN_ELEMENT_THEORY = SGP/SGP4

EPOCH          = 2026-01-03T05:32:05.488512
MEAN_MOTION    = 14.24645552
ECCENTRICITY   = .0013181
INCLINATION    = 50.0012
RA_OF_ASC_NODE = 281.5716
ARG_OF_PERICENTER = 322.3557
MEAN_ANOMALY   = 37.6433

EPHEMERIS_TYPE = 0
CLASSIFICATION_TYPE = U
NORAD_CAT_ID   = 67061
ELEMENT_SET_NO = 999
REV_AT_EPOCH   = 318
BSTAR          = .34479683E-3
MEAN_MOTION_DOT = .648E-5
MEAN_MOTION_DDOT = 0

CCSDS_OMM_VERS = 2.0
CREATION_DATE  = 
ORIGINATOR     = 

OBJECT_NAME    = HULIANWANG DIGUI-122
OBJECT_ID      = 2025-295D
CENTER_NAME    = EARTH
REF_FRAME      = TEME
TIME_SYSTEM    = UTC
MEAN_ELEMENT_THEORY = SGP/SGP4

EPOCH          = 2026-01-03T07:09:17.405568
MEAN_MOTION    = 14.24620862
ECCENTRICITY   = .00130204
INCLINATION    = 50.0044
RA_OF_ASC_NODE = 281.2745
ARG_OF_PERICENTER = 328.5635
MEAN_ANOMALY   = 31.4499

EPHEMERIS_TYPE = 0
CLASSIFICATION_TYPE = U
NORAD_CAT_ID   = 67062
ELEMENT_SET_NO = 999
REV_AT_EPOCH   = 319
BSTAR          = .34320892E-3
MEAN_MOTION_DOT = .644E-5
MEAN_MOTION_DDOT = 0

CCSDS_OMM_VERS = 2.0
CREATION_DATE  = 
ORIGINATOR     = 

OBJECT_NAME    = HULIANWANG DIGUI-123
OBJECT_ID      = 2025-295E
CENTER_NAME    = EARTH
REF_FRAME      = TEME
TIME_SYSTEM    = UTC
MEAN_ELEMENT_THEORY = SGP/SGP4

EPOCH          = 2026-01-03T07:07:48.685728
MEAN_MOTION    = 14.24626522
ECCENTRICITY   = .00119596
INCLINATION    = 50.0050
RA_OF_ASC_NODE = 281.2722
ARG_OF_PERICENTER = 328.0791
MEAN_ANOMALY   = 31.9396

EPHEMERIS_TYPE = 0
CLASSIFICATION_TYPE = U
NORAD_CAT_ID   = 67063
ELEMENT_SET_NO = 999
REV_AT_EPOCH   = 319
BSTAR          = .34229767E-3
MEAN_MOTION_DOT = .642E-5
MEAN_MOTION_DDOT = 0

CCSDS_OMM_VERS = 2.0
CREATION_DATE  = 
ORIGINATOR     = 

OBJECT_NAME    = HULIANWANG DIGUI-124
OBJECT_ID      = 2025-295F
CENTER_NAME    = EARTH
REF_FRAME      = TEME
TIME_SYSTEM    = UTC
MEAN_ELEMENT_THEORY = SGP/SGP4

EPOCH          = 2026-01-03T07:06:24.644448
MEAN_MOTION    = 14.24630460
ECCENTRICITY   = .00118309
INCLINATION    = 50.0009
RA_OF_ASC_NODE = 281.2484
ARG_OF_PERICENTER = 321.7655
MEAN_ANOMALY   = 38.2419

EPHEMERIS_TYPE = 0
CLASSIFICATION_TYPE = U
NORAD_CAT_ID   = 67064
ELEMENT_SET_NO = 999
REV_AT_EPOCH   = 319
BSTAR          = .33988997E-3
MEAN_MOTION_DOT = .636E-5
MEAN_MOTION_DDOT = 0

CCSDS_OMM_VERS = 2.0
CREATION_DATE  = 
ORIGINATOR     = 

OBJECT_NAME    = HULIANWANG DIGUI-125
OBJECT_ID      = 2025-295G
CENTER_NAME    = EARTH
REF_FRAME      = TEME
TIME_SYSTEM    = UTC
MEAN_ELEMENT_THEORY = SGP/SGP4

EPOCH          = 2026-01-03T07:04:50.847744
MEAN_MOTION    = 14.24638368
ECCENTRICITY   = .00119599
INCLINATION    = 50.0001
RA_OF_ASC_NODE = 281.2393
ARG_OF_PERICENTER = 329.6703
MEAN_ANOMALY   = 30.3517

EPHEMERIS_TYPE = 0
CLASSIFICATION_TYPE = U
NORAD_CAT_ID   = 67065
ELEMENT_SET_NO = 999
REV_AT_EPOCH   = 319
BSTAR          = .33779039E-3
MEAN_MOTION_DOT = .631E-5
MEAN_MOTION_DDOT = 0

CCSDS_OMM_VERS = 2.0
CREATION_DATE  = 
ORIGINATOR     = 

OBJECT_NAME    = HULIANWANG DIGUI-126
OBJECT_ID      = 2025-295H
CENTER_NAME    = EARTH
REF_FRAME      = TEME
TIME_SYSTEM    = UTC
MEAN_ELEMENT_THEORY = SGP/SGP4

EPOCH          = 2026-01-03T07:03:21.981888
MEAN_MOTION    = 14.24658684
ECCENTRICITY   = .00112477
INCLINATION    = 50.0004
RA_OF_ASC_NODE = 281.2338
ARG_OF_PERICENTER = 323.2272
MEAN_ANOMALY   = 36.7869

EPHEMERIS_TYPE = 0
CLASSIFICATION_TYPE = U
NORAD_CAT_ID   = 67066
ELEMENT_SET_NO = 999
REV_AT_EPOCH   = 319
BSTAR          = .33461546E-3
MEAN_MOTION_DOT = .624E-5
MEAN_MOTION_DDOT = 0

CCSDS_OMM_VERS = 2.0
CREATION_DATE  = 
ORIGINATOR     = 

OBJECT_NAME    = HULIANWANG DIGUI-127
OBJECT_ID      = 2025-295J
CENTER_NAME    = EARTH
REF_FRAME      = TEME
TIME_SYSTEM    = UTC
MEAN_ELEMENT_THEORY = SGP/SGP4

EPOCH          = 2026-01-03T05:20:53.255904
MEAN_MOTION    = 14.24672222
ECCENTRICITY   = .00107231
INCLINATION    = 50.0043
RA_OF_ASC_NODE = 281.5339
ARG_OF_PERICENTER = 329.4670
MEAN_ANOMALY   = 30.5618

EPHEMERIS_TYPE = 0
CLASSIFICATION_TYPE = U
NORAD_CAT_ID   = 67067
ELEMENT_SET_NO = 999
REV_AT_EPOCH   = 318
BSTAR          = -.50361838E-3
MEAN_MOTION_DOT = -.1339E-4
MEAN_MOTION_DDOT = 0

CCSDS_OMM_VERS = 2.0
CREATION_DATE  = 
ORIGINATOR     = 

OBJECT_NAME    = CZ-12 R/B
OBJECT_ID      = 2025-295K
CENTER_NAME    = EARTH
REF_FRAME      = TEME
TIME_SYSTEM    = UTC
MEAN_ELEMENT_THEORY = SGP/SGP4

EPOCH          = 2026-01-03T04:36:16.692768
MEAN_MOTION    = 14.41134857
ECCENTRICITY   = .00568664
INCLINATION    = 49.9935
RA_OF_ASC_NODE = 279.3062
ARG_OF_PERICENTER = 212.7951
MEAN_ANOMALY   = 146.9435

EPHEMERIS_TYPE = 0
CLASSIFICATION_TYPE = U
NORAD_CAT_ID   = 67068
ELEMENT_SET_NO = 999
REV_AT_EPOCH   = 320
BSTAR          = .9070849E-4
MEAN_MOTION_DOT = .132E-5
MEAN_MOTION_DDOT = 0

CCSDS_OMM_VERS = 2.0
CREATION_DATE  = 
ORIGINATOR     = 

OBJECT_NAME    = XIWANG-5 02
OBJECT_ID      = 2025-296A
CENTER_NAME    = EARTH
REF_FRAME      = TEME
TIME_SYSTEM    = UTC
MEAN_ELEMENT_THEORY = SGP/SGP4

EPOCH          = 2026-01-03T06:14:42.158688
MEAN_MOTION    = 15.13048292
ECCENTRICITY   = .00026463
INCLINATION    = 41.3532
RA_OF_ASC_NODE = 339.1860
ARG_OF_PERICENTER = 320.6968
MEAN_ANOMALY   = 39.3659

EPHEMERIS_TYPE = 0
CLASSIFICATION_TYPE = U
NORAD_CAT_ID   = 67069
ELEMENT_SET_NO = 999
REV_AT_EPOCH   = 322
BSTAR          = .11466545E-2
MEAN_MOTION_DOT = .20516E-3
MEAN_MOTION_DDOT = 0

CCSDS_OMM_VERS = 2.0
CREATION_DATE  = 
ORIGINATOR     = 

OBJECT_NAME    = DEAR-5
OBJECT_ID      = 2025-296B
CENTER_NAME    = EARTH
REF_FRAME      = TEME
TIME_SYSTEM    = UTC
MEAN_ELEMENT_THEORY = SGP/SGP4

EPOCH          = 2026-01-03T07:07:51.796992
MEAN_MOTION    = 15.17050494
ECCENTRICITY   = .0019666
INCLINATION    = 41.3576
RA_OF_ASC_NODE = 338.6001
ARG_OF_PERICENTER = 172.0973
MEAN_ANOMALY   = 188.0161

EPHEMERIS_TYPE = 0
CLASSIFICATION_TYPE = U
NORAD_CAT_ID   = 67070
ELEMENT_SET_NO = 999
REV_AT_EPOCH   = 322
BSTAR          = .55383749E-3
MEAN_MOTION_DOT = .11038E-3
MEAN_MOTION_DDOT = 0

