HULIANWANG DIGUI-119    
1 67059U 25295A   26003.23376822  .00000644  00000+0  34345-3 0  9999
2 67059  50.0041 281.6023 0013902 322.5192  37.4751 14.24626934  3180
HULIANWANG DIGUI-120    
1 67060U 25295B   26003.29902445  .00000644  00000+0  34335-3 0  9992
2 67060  50.0049 281.2814 0013273 323.3718  36.6287 14.24628827  3197
HULIANWANG DIGUI-121    
1 67061U 25295C   26003.23061908  .00000648  00000+0  34480-3 0  9992
2 67061  50.0012 281.5716 0013181 322.3557  37.6433 14.24645552  3187
HULIANWANG DIGUI-122    
1 67062U 25295D   26003.29811812  .00000644  00000+0  34321-3 0  9996
2 67062  50.0044 281.2745 0013020 328.5635  31.4499 14.24620862  3191
HULIANWANG DIGUI-123    
1 67063U 25295E   26003.29709127  .00000642  00000+0  34230-3 0  9999
2 67063  50.0050 281.2722 0011959 328.0791  31.9396 14.24626522  3191
HULIANWANG DIGUI-124    
1 67064U 25295F   26003.29611857  .00000636  00000+0  33989-3 0  9995
2 67064  50.0009 281.2484 0011830 321.7655  38.2419 14.24630460  3190
HULIANWANG DIGUI-125    
1 67065U 25295G   26003.29503296  .00000631  00000+0  33779-3 0  9995
2 67065  50.0001 281.2393 0011959 329.6703  30.3517 14.24638368  3192
HULIANWANG DIGUI-126    
1 67066U 25295H   26003.29400442  .00000624  00000+0  33462-3 0  9996
2 67066  50.0004 281.2338 0011247 323.2272  36.7869 14.24658684  3199
HULIANWANG DIGUI-127    
1 67067U 25295J   26003.22283861 -.00001339  00000+0 -50362-3 0  9998
2 67067  50.0043 281.5339 0010723 329.4670  30.5618 14.24672222  3182
CZ-12 R/B               
1 67068U 25295K   26003.19185987  .00000132  00000+0  90708-4 0  9992
2 67068  49.9935 279.3062 0056866 212.7951 146.9435 14.41134857  3200
XIWANG-5 02             
1 67069U 25296A   26003.26021017  .00020516  00000+0  11467-2 0  9996
2 67069  41.3532 339.1860 0002646 320.6968  39.3659 15.13048292  3227
DEAR-5                  
1 67070U 25296B   26003.29712728  .00011038  00000+0  55384-3 0  9993
2 67070  41.3576 338.6001 0019666 172.0973 188.0161 15.17050494  3224
